{"type": "FeatureCollection", "features": [ {"type": "Feature", "properties": {"norad_id": 66645, "name": "SHENZHOU-22", "group": "last-30-days", "lat": 3.278210216526897, "lon": 111.27132481732194, "alt_km": 382.5612339071158, "timestamp": "2025-12-26T04:40:04.509864+00:00", "meta": {"OBJECT_NAME": "SHENZHOU-22", "OBJECT_ID": "2025-272A", "EPOCH": "2025-12-25T20:14:16.934784", "MEAN_MOTION": 15.59690263, "ECCENTRICITY": 0.00084341, "INCLINATION": 41.4681, "RA_OF_ASC_NODE": 297.125, "ARG_OF_PERICENTER": 146.1754, "MEAN_ANOMALY": 213.9624, "EPHEMERIS_TYPE": 0, "CLASSIFICATION_TYPE": "U", "NORAD_CAT_ID": 66645, "ELEMENT_SET_NO": 999, "REV_AT_EPOCH": 26598, "BSTAR": 0.00020858961, "MEAN_MOTION_DOT": 0.00016869, "MEAN_MOTION_DDOT": 0}, "tle": {"line1": "1 66645U 25272A   25359.84325156  .00016869  00000+0  20859-3 0  9999", "line2": "2 66645  41.4681 297.1250 0008434 146.1754 213.9624 15.59690263265989"}}, "geometry": {"type": "Point", "coordinates": [111.27132481732194, 3.278210216526897]}}, {"type": "Feature", "properties": {"norad_id": 66647, "name": "COSMOS 2597 (RODNIK-S 22)", "group": "last-30-days", "lat": 62.804902309685716, "lon": 83.23953115077364, "alt_km": 1496.6324830373742, "timestamp": "2025-12-26T04:40:04.509875+00:00", "meta": {"OBJECT_NAME": "COSMOS 2597 (RODNIK-S 22)", "OBJECT_ID": "2025-273A", "EPOCH": "2025-12-25T22:14:37.268736", "MEAN_MOTION": 12.41952275, "ECCENTRICITY": 0.00075978, "INCLINATION": 82.4994, "RA_OF_ASC_NODE": 278.261, "ARG_OF_PERICENTER": 254.9333, "MEAN_ANOMALY": 105.0905, "EPHEMERIS_TYPE": 0, "CLASSIFICATION_TYPE": "U", "NORAD_CAT_ID": 66647, "ELEMENT_SET_NO": 999, "REV_AT_EPOCH": 377, "BSTAR": 0.00017123203, "MEAN_MOTION_DOT": 3.3e-07, "MEAN_MOTION_DDOT": 0}, "tle": {"line1": "1 66647U 25273A   25359.92682024  .00000033  00000+0  17123-3 0  9997", "line2": "2 66647  82.4994 278.2610 0007597 254.9333 105.0905 12.41952275  3775"}}, "geometry": {"type": "Point", "coordinates": [83.23953115077364, 62.804902309685716]}}, {"type": "Feature", "properties": {"norad_id": 66648, "name": "COSMOS 2598 (RODNIK-S 23)", "group": "last-30-days", "lat": -33.7149106374864, "lon": 103.12012734206854, "alt_km": 1492.5271904566525, "timestamp": "2025-12-26T04:40:04.509887+00:00", "meta": {"OBJECT_NAME": "COSMOS 2598 (RODNIK-S 23)", "OBJECT_ID": "2025-273B", "EPOCH": "2025-12-25T21:43:34.837248", "MEAN_MOTION": 12.4323365, "ECCENTRICITY": 0.00082224, "INCLINATION": 82.5032, "RA_OF_ASC_NODE": 278.2595, "ARG_OF_PERICENTER": 205.4605, "MEAN_ANOMALY": 154.6071, "EPHEMERIS_TYPE": 0, "CLASSIFICATION_TYPE": "U", "NORAD_CAT_ID": 66648, "ELEMENT_SET_NO": 999, "REV_AT_EPOCH": 377, "BSTAR": 0.00014904767, "MEAN_MOTION_DOT": 3.1e-07, "MEAN_MOTION_DDOT": 0}, "tle": {"line1": "1 66648U 25273B   25359.90526432  .00000031  00000+0  14905-3 0  9999", "line2": "2 66648  82.5032 278.2595 0008222 205.4605 154.6071 12.43233650  3776"}}, "geometry": {"type": "Point", "coordinates": [103.12012734206854, -33.7149106374864]}}, {"type": "Feature", "properties": {"norad_id": 66649, "name": "COSMOS 2599 (RODNIK-S 24)", "group": "last-30-days", "lat": 58.00134854514366, "lon": -69.70715309555352, "alt_km": 1501.056010166607, "timestamp": "2025-12-26T04:40:04.509897+00:00", "meta": {"OBJECT_NAME": "COSMOS 2599 (RODNIK-S 24)", "OBJECT_ID": "2025-273C", "EPOCH": "2025-12-25T22:32:52.864800", "MEAN_MOTION": 12.41152363, "ECCENTRICITY": 0.00063405, "INCLINATION": 82.505, "RA_OF_ASC_NODE": 278.2892, "ARG_OF_PERICENTER": 242.8979, "MEAN_ANOMALY": 117.1453, "EPHEMERIS_TYPE": 0, "CLASSIFICATION_TYPE": "U", "NORAD_CAT_ID": 66649, "ELEMENT_SET_NO": 999, "REV_AT_EPOCH": 377, "BSTAR": 0.00027254967, "MEAN_MOTION_DOT": 4.7e-07, "MEAN_MOTION_DDOT": 0}, "tle": {"line1": "1 66649U 25273C   25359.93950075  .00000047  00000+0  27255-3 0  9996", "line2": "2 66649  82.5050 278.2892 0006340 242.8979 117.1453 12.41152363  3772"}}, "geometry": {"type": "Point", "coordinates": [-69.70715309555352, 58.00134854514366]}}, {"type": "Feature", "properties": {"norad_id": 66650, "name": "BEE-1000", "group": "last-30-days", "lat": 39.46785080584655, "lon": 113.56643780712102, "alt_km": 586.0012427569527, "timestamp": "2025-12-26T04:40:04.509908+00:00", "meta": {"OBJECT_NAME": "BEE-1000", "OBJECT_ID": "2025-274A", "EPOCH": "2025-12-25T18:22:56.172288", "MEAN_MOTION": 14.91704578, "ECCENTRICITY": 0.00111541, "INCLINATION": 97.7405, "RA_OF_ASC_NODE": 286.7153, "ARG_OF_PERICENTER": 203.6876, "MEAN_ANOMALY": 156.3831, "EPHEMERIS_TYPE": 0, "CLASSIFICATION_TYPE": "U", "NORAD_CAT_ID": 66650, "ELEMENT_SET_NO": 999, "REV_AT_EPOCH": 434, "BSTAR": 0.00017801436, "MEAN_MOTION_DOT": 1.737e-05, "MEAN_MOTION_DDOT": 0}, "tle": {"line1": "1 66650U 25274A   25359.76592792  .00001737  00000+0  17801-3 0  9991", "line2": "2 66650  97.7405 286.7153 0011154 203.6876 156.3831 14.91704578  4347"}}, "geometry": {"type": "Point", "coordinates": [113.56643780712102, 39.46785080584655]}}, {"type": "Feature", "properties": {"norad_id": 66651, "name": "2025-274B", "group": "last-30-days", "lat": 26.82554584394164, "lon": 111.08384339886199, "alt_km": 585.7064310972828, "timestamp": "2025-12-26T04:40:04.509918+00:00", "meta": {"OBJECT_NAME": "2025-274B", "OBJECT_ID": "2025-274B", "EPOCH": "2025-12-25T18:19:35.220576", "MEAN_MOTION": 14.91892174, "ECCENTRICITY": 0.00113461, "INCLINATION": 97.7401, "RA_OF_ASC_NODE": 286.7168, "ARG_OF_PERICENTER": 201.7982, "MEAN_ANOMALY": 158.2756, "EPHEMERIS_TYPE": 0, "CLASSIFICATION_TYPE": "U", "NORAD_CAT_ID": 66651, "ELEMENT_SET_NO": 999, "REV_AT_EPOCH": 434, "BSTAR": 0.00042786053, "MEAN_MOTION_DOT": 4.275e-05, "MEAN_MOTION_DDOT": 0}, "tle": {"line1": "1 66651U 25274B   25359.76360209  .00004275  00000+0  42786-3 0  9998", "line2": "2 66651  97.7401 286.7168 0011346 201.7982 158.2756 14.91892174  4347"}}, "geometry": {"type": "Point", "coordinates": [111.08384339886199, 26.82554584394164]}}, {"type": "Feature", "properties": {"norad_id": 66652, "name": "2025-274C", "group": "last-30-days", "lat": 14.708592439290976, "lon": 109.19295241516345, "alt_km": 587.080262254477, "timestamp": "2025-12-26T04:40:04.509928+00:00", "meta": {"OBJECT_NAME": "2025-274C", "OBJECT_ID": "2025-274C", "EPOCH": "2025-12-25T18:16:20.419680", "MEAN_MOTION": 14.91976974, "ECCENTRICITY": 0.00108742, "INCLINATION": 97.7406, "RA_OF_ASC_NODE": 286.7213, "ARG_OF_PERICENTER": 208.6516, "MEAN_ANOMALY": 151.4107, "EPHEMERIS_TYPE": 0, "CLASSIFICATION_TYPE": "U", "NORAD_CAT_ID": 66652, "ELEMENT_SET_NO": 999, "REV_AT_EPOCH": 434, "BSTAR": 0.00035574365, "MEAN_MOTION_DOT": 3.552e-05, "MEAN_MOTION_DDOT": 0}, "tle": {"line1": "1 66652U 25274C   25359.76134745  .00003552  00000+0  35574-3 0  9997", "line2": "2 66652  97.7406 286.7213 0010874 208.6516 151.4107 14.91976974  4344"}}, "geometry": {"type": "Point", "coordinates": [109.19295241516345, 14.708592439290976]}}, {"type": "Feature", "properties": {"norad_id": 66653, "name": "2025-274D", "group": "last-30-days", "lat": 14.384733251769337, "lon": 109.14549160716726, "alt_km": 586.3008965669296, "timestamp": "2025-12-26T04:40:04.509938+00:00", "meta": {"OBJECT_NAME": "2025-274D", "OBJECT_ID": "2025-274D", "EPOCH": "2025-12-25T21:29:24.103968", "MEAN_MOTION": 14.9196714, "ECCENTRICITY": 0.00118716, "INCLINATION": 97.7405, "RA_OF_ASC_NODE": 286.8526, "ARG_OF_PERICENTER": 204.7959, "MEAN_ANOMALY": 155.2691, "EPHEMERIS_TYPE": 0, "CLASSIFICATION_TYPE": "U", "NORAD_CAT_ID": 66653, "ELEMENT_SET_NO": 999, "REV_AT_EPOCH": 436, "BSTAR": 0.00025761605, "MEAN_MOTION_DOT": 2.556e-05, "MEAN_MOTION_DDOT": 0}, "tle": {"line1": "1 66653U 25274D   25359.89541787  .00002556  00000+0  25762-3 0  9991", "line2": "2 66653  97.7405 286.8526 0011871 204.7959 155.2691 14.91967140  4365"}}, "geometry": {"type": "Point", "coordinates": [109.14549160716726, 14.384733251769337]}}, {"type": "Feature", "properties": {"norad_id": 66654, "name": "JACK E", "group": "last-30-days", "lat": -3.9269313952063145, "lon": 106.62024280727411, "alt_km": 586.7260466837461, "timestamp": "2025-12-26T04:40:04.509948+00:00", "meta": {"OBJECT_NAME": "JACK E", "OBJECT_ID": "2025-274E", "EPOCH": "2025-12-25T18:11:22.632576", "MEAN_MOTION": 14.9215245, "ECCENTRICITY": 0.00123974, "INCLINATION": 97.7406, "RA_OF_ASC_NODE": 286.7263, "ARG_OF_PERICENTER": 206.9936, "MEAN_ANOMALY": 153.064, "EPHEMERIS_TYPE": 0, "CLASSIFICATION_TYPE": "U", "NORAD_CAT_ID": 66654, "ELEMENT_SET_NO": 999, "REV_AT_EPOCH": 434, "BSTAR": 0.00032962854, "MEAN_MOTION_DOT": 3.303e-05, "MEAN_MOTION_DDOT": 0}, "tle": {"line1": "1 66654U 25274E   25359.75790084  .00003303  00000+0  32963-3 0  9995", "line2": "2 66654  97.7406 286.7263 0012397 206.9936 153.0640 14.92152450  4346"}}, "geometry": {"type": "Point", "coordinates": [106.62024280727411, -3.9269313952063145]}}, {"type": "Feature", "properties": {"norad_id": 66655, "name": "2025-274F", "group": "last-30-days", "lat": 37.856005709456106, "lon": 113.18975231581251, "alt_km": 594.4770690498308, "timestamp": "2025-12-26T04:40:04.509962+00:00", "meta": {"OBJECT_NAME": "2025-274F", "OBJECT_ID": "2025-274F", "EPOCH": "2025-12-25T18:22:19.797024", "MEAN_MOTION": 14.91199318, "ECCENTRICITY": 0.00044552, "INCLINATION": 97.7336, "RA_OF_ASC_NODE": 286.7062, "ARG_OF_PERICENTER": 336.6899, "MEAN_ANOMALY": 23.4117, "EPHEMERIS_TYPE": 0, "CLASSIFICATION_TYPE": "U", "NORAD_CAT_ID": 66655, "ELEMENT_SET_NO": 999, "REV_AT_EPOCH": 434, "BSTAR": 1.0624922e-05, "MEAN_MOTION_DOT": 5.1e-07, "MEAN_MOTION_DDOT": 0}, "tle": {"line1": "1 66655U 25274F   25359.76550691  .00000051  00000+0  10625-4 0  9994", "line2": "2 66655  97.7336 286.7062 0004455 336.6899  23.4117 14.91199318  4343"}}, "geometry": {"type": "Point", "coordinates": [113.18975231581251, 37.856005709456106]}}]}